{"type": "FeatureCollection", "features": [{"type": "Feature", "properties": {"norad_id": 24946, "name": "IRIDIUM 33", "group": "iridium-33-debris", "lat": -14.446744085637928, "lon": -108.18430155946182, "alt_km": 775.7844351950553, "timestamp": "2025-12-06T09:34:17.298989+00:00", "meta": {"OBJECT_NAME": "IRIDIUM 33", "OBJECT_ID": "1997-051C", "EPOCH": "2025-12-05T22:37:37.704000", "MEAN_MOTION": 14.3502972, "ECCENTRICITY": 0.00063348, "INCLINATION": 86.3871, "RA_OF_ASC_NODE": 71.0744, "ARG_OF_PERICENTER": 226.2676, "MEAN_ANOMALY": 133.7996, "EPHEMERIS_TYPE": 0, "CLASSIFICATION_TYPE": "U", "NORAD_CAT_ID": 24946, "ELEMENT_SET_NO": 999, "REV_AT_EPOCH": 47737, "BSTAR": 0.00023124953, "MEAN_MOTION_DOT": 6.78e-06, "MEAN_MOTION_DDOT": 0}, "tle": {"line1": "1 24946U 97051C   25339.94279750  .00000678  00000+0  23125-3 0  9998", "line2": "2 24946  86.3871  71.0744 0006334 226.2676 133.7996 14.35029720477379"}}, "geometry": {"type": "Point", "coordinates": [-108.18430155946182, -14.446744085637928]}}, {"type": "Feature", "properties": {"norad_id": 33773, "name": "IRIDIUM 33 DEB", "group": "iridium-33-debris", "lat": -35.77402288659557, "lon": 60.67718615639234, "alt_km": 762.0015021200115, "timestamp": "2025-12-06T09:34:17.299016+00:00", "meta": {"OBJECT_NAME": "IRIDIUM 33 DEB", "OBJECT_ID": "1997-051L", "EPOCH": "2025-12-05T15:26:01.415616", "MEAN_MOTION": 14.43232888, "ECCENTRICITY": 0.00117395, "INCLINATION": 86.4014, "RA_OF_ASC_NODE": 63.5962, "ARG_OF_PERICENTER": 168.1079, "MEAN_ANOMALY": 192.0401, "EPHEMERIS_TYPE": 0, "CLASSIFICATION_TYPE": "U", "NORAD_CAT_ID": 33773, "ELEMENT_SET_NO": 999, "REV_AT_EPOCH": 88245, "BSTAR": 0.00063628745, "MEAN_MOTION_DOT": 2.161e-05, "MEAN_MOTION_DDOT": 0}, "tle": {"line1": "1 33773U 97051L   25339.64307194  .00002161  00000+0  63629-3 0  9999", "line2": "2 33773  86.4014  63.5962 0011739 168.1079 192.0401 14.43232888882459"}}, "geometry": {"type": "Point", "coordinates": [60.67718615639234, -35.77402288659557]}}, {"type": "Feature", "properties": {"norad_id": 33775, "name": "IRIDIUM 33 DEB", "group": "iridium-33-debris", "lat": 85.98628678367344, "lon": 117.24121344347252, "alt_km": 745.6069743891785, "timestamp": "2025-12-06T09:34:17.299031+00:00", "meta": {"OBJECT_NAME": "IRIDIUM 33 DEB", "OBJECT_ID": "1997-051N", "EPOCH": "2025-12-05T17:05:17.332224", "MEAN_MOTION": 14.41444642, "ECCENTRICITY": 0.00134808, "INCLINATION": 86.3642, "RA_OF_ASC_NODE": 52.5534, "ARG_OF_PERICENTER": 176.816, "MEAN_ANOMALY": 309.9384, "EPHEMERIS_TYPE": 0, "CLASSIFICATION_TYPE": "U", "NORAD_CAT_ID": 33775, "ELEMENT_SET_NO": 999, "REV_AT_EPOCH": 88039, "BSTAR": 0.00063125965, "MEAN_MOTION_DOT": 2.068e-05, "MEAN_MOTION_DDOT": 0}, "tle": {"line1": "1 33775U 97051N   25339.71200616  .00002068  00000+0  63126-3 0  9998", "line2": "2 33775  86.3642  52.5534 0013480 176.8160 309.9384 14.41444642880393"}}, "geometry": {"type": "Point", "coordinates": [117.24121344347252, 85.98628678367344]}}, {"type": "Feature", "properties": {"norad_id": 33776, "name": "IRIDIUM 33 DEB", "group": "iridium-33-debris", "lat": 31.66129909678223, "lon": 85.66121020273724, "alt_km": 772.3936685992694, "timestamp": "2025-12-06T09:34:17.299060+00:00", "meta": {"OBJECT_NAME": "IRIDIUM 33 DEB", "OBJECT_ID": "1997-051P", "EPOCH": "2025-12-05T20:37:14.618208", "MEAN_MOTION": 14.38213878, "ECCENTRICITY": 0.00135953, "INCLINATION": 86.4037, "RA_OF_ASC_NODE": 83.6651, "ARG_OF_PERICENTER": 214.0319, "MEAN_ANOMALY": 265.6739, "EPHEMERIS_TYPE": 0, "CLASSIFICATION_TYPE": "U", "NORAD_CAT_ID": 33776, "ELEMENT_SET_NO": 999, "REV_AT_EPOCH": 87983, "BSTAR": 0.00056235874, "MEAN_MOTION_DOT": 1.728e-05, "MEAN_MOTION_DDOT": 0}, "tle": {"line1": "1 33776U 97051P   25339.85919697  .00001728  00000+0  56236-3 0  9996", "line2": "2 33776  86.4037  83.6651 0013595 214.0319 265.6739 14.38213878879836"}}, "geometry": {"type": "Point", "coordinates": [85.66121020273724, 31.66129909678223]}}, {"type": "Feature", "properties": {"norad_id": 33777, "name": "IRIDIUM 33 DEB", "group": "iridium-33-debris", "lat": 35.859562820917084, "lon": -144.66137570892337, "alt_km": 707.8239886287593, "timestamp": "2025-12-06T09:34:17.299072+00:00", "meta": {"OBJECT_NAME": "IRIDIUM 33 DEB", "OBJECT_ID": "1997-051Q", "EPOCH": "2025-12-05T21:21:43.880544", "MEAN_MOTION": 14.55534379, "ECCENTRICITY": 0.00050979, "INCLINATION": 86.3791, "RA_OF_ASC_NODE": 38.1831, "ARG_OF_PERICENTER": 281.3229, "MEAN_ANOMALY": 78.7406, "EPHEMERIS_TYPE": 0, "CLASSIFICATION_TYPE": "U", "NORAD_CAT_ID": 33777, "ELEMENT_SET_NO": 999, "REV_AT_EPOCH": 88434, "BSTAR": 0.001538328, "MEAN_MOTION_DOT": 6.721e-05, "MEAN_MOTION_DDOT": 0}, "tle": {"line1": "1 33777U 97051Q   25339.89009121  .00006721  00000+0  15383-2 0  9998", "line2": "2 33777  86.3791  38.1831 0005097 281.3229  78.7406 14.55534379884340"}}, "geometry": {"type": "Point", "coordinates": [-144.66137570892337, 35.859562820917084]}}, {"type": "Feature", "properties": {"norad_id": 33850, "name": "IRIDIUM 33 DEB", "group": "iridium-33-debris", "lat": 53.562055163183594, "lon": 37.8767234553926, "alt_km": 751.4393093041881, "timestamp": "2025-12-06T09:34:17.299084+00:00", "meta": {"OBJECT_NAME": "IRIDIUM 33 DEB", "OBJECT_ID": "1997-051T", "EPOCH": "2025-12-05T15:32:06.083232", "MEAN_MOTION": 14.42123822, "ECCENTRICITY": 0.00115072, "INCLINATION": 86.3424, "RA_OF_ASC_NODE": 33.2293, "ARG_OF_PERICENTER": 183.1131, "MEAN_ANOMALY": 291.637, "EPHEMERIS_TYPE": 0, "CLASSIFICATION_TYPE": "U", "NORAD_CAT_ID": 33850, "ELEMENT_SET_NO": 999, "REV_AT_EPOCH": 88050, "BSTAR": 0.00076178787, "MEAN_MOTION_DOT": 2.525e-05, "MEAN_MOTION_DDOT": 0}, "tle": {"line1": "1 33850U 97051T   25339.64729263  .00002525  00000+0  76179-3 0  9998", "line2": "2 33850  86.3424  33.2293 0011507 183.1131 291.6370 14.42123822880500"}}, "geometry": {"type": "Point", "coordinates": [37.8767234553926, 53.562055163183594]}}, {"type": "Feature", "properties": {"norad_id": 33853, "name": "IRIDIUM 33 DEB", "group": "iridium-33-debris", "lat": -18.294923463810637, "lon": -8.733058319651906, "alt_km": 889.5265959941735, "timestamp": "2025-12-06T09:34:17.299097+00:00", "meta": {"OBJECT_NAME": "IRIDIUM 33 DEB", "OBJECT_ID": "1997-051W", "EPOCH": "2025-12-05T12:05:32.774784", "MEAN_MOTION": 13.98990964, "ECCENTRICITY": 0.02067943, "INCLINATION": 85.9999, "RA_OF_ASC_NODE": 352.9847, "ARG_OF_PERICENTER": 258.2048, "MEAN_ANOMALY": 256.5867, "EPHEMERIS_TYPE": 0, "CLASSIFICATION_TYPE": "U", "NORAD_CAT_ID": 33853, "ELEMENT_SET_NO": 999, "REV_AT_EPOCH": 85244, "BSTAR": 0.0039270019, "MEAN_MOTION_DOT": 6.83e-05, "MEAN_MOTION_DDOT": 0}, "tle": {"line1": "1 33853U 97051W   25339.50385156  .00006830  00000+0  39270-2 0  9998", "line2": "2 33853  85.9999 352.9847 0206794 258.2048 256.5867 13.98990964852448"}}, "geometry": {"type": "Point", "coordinates": [-8.733058319651906, -18.294923463810637]}}, {"type": "Feature", "properties": {"norad_id": 33860, "name": "IRIDIUM 33 DEB", "group": "iridium-33-debris", "lat": 45.62162830646771, "lon": -153.65967263442448, "alt_km": 668.584768874397, "timestamp": "2025-12-06T09:34:17.299108+00:00", "meta": {"OBJECT_NAME": "IRIDIUM 33 DEB", "OBJECT_ID": "1997-051AD", "EPOCH": "2025-12-05T22:18:37.224864", "MEAN_MOTION": 14.67231714, "ECCENTRICITY": 0.00083511, "INCLINATION": 86.3845, "RA_OF_ASC_NODE": 30.2526, "ARG_OF_PERICENTER": 20.1775, "MEAN_ANOMALY": 157.1213, "EPHEMERIS_TYPE": 0, "CLASSIFICATION_TYPE": "U", "NORAD_CAT_ID": 33860, "ELEMENT_SET_NO": 999, "REV_AT_EPOCH": 88622, "BSTAR": 0.0019755144, "MEAN_MOTION_DOT": 0.00011159, "MEAN_MOTION_DDOT": 0}, "tle": {"line1": "1 33860U 97051AD  25339.92959751  .00011159  00000+0  19755-2 0  9996", "line2": "2 33860  86.3845  30.2526 0008351  20.1775 157.1213 14.67231714886225"}}, "geometry": {"type": "Point", "coordinates": [-153.65967263442448, 45.62162830646771]}}, {"type": "Feature", "properties": {"norad_id": 33862, "name": "IRIDIUM 33 DEB", "group": "iridium-33-debris", "lat": 57.705474866420374, "lon": -145.3748101319802, "alt_km": 625.5369726324061, "timestamp": "2025-12-06T09:34:17.299119+00:00", "meta": {"OBJECT_NAME": "IRIDIUM 33 DEB", "OBJECT_ID": "1997-051AF", "EPOCH": "2025-12-05T17:15:09.829728", "MEAN_MOTION": 14.69303234, "ECCENTRICITY": 0.00538024, "INCLINATION": 86.4096, "RA_OF_ASC_NODE": 40.6261, "ARG_OF_PERICENTER": 92.5454, "MEAN_ANOMALY": 34.9323, "EPHEMERIS_TYPE": 0, "CLASSIFICATION_TYPE": "U", "NORAD_CAT_ID": 33862, "ELEMENT_SET_NO": 999, "REV_AT_EPOCH": 88720, "BSTAR": 0.0025533925, "MEAN_MOTION_DOT": 0.00015448, "MEAN_MOTION_DDOT": 0}, "tle": {"line1": "1 33862U 97051AF  25339.71886377  .00015448  00000+0  25534-2 0  9995", "line2": "2 33862  86.4096  40.6261 0053802  92.5454  34.9323 14.69303234887207"}}, "geometry": {"type": "Point", "coordinates": [-145.3748101319802, 57.705474866420374]}}, {"type": "Feature", "properties": {"norad_id": 33866, "name": "IRIDIUM 33 DEB", "group": "iridium-33-debris", "lat": 67.86568432229475, "lon": -93.43486494488428, "alt_km": 772.0805251120264, "timestamp": "2025-12-06T09:34:17.299131+00:00", "meta": {"OBJECT_NAME": "IRIDIUM 33 DEB", "OBJECT_ID": "1997-051AK", "EPOCH": "2025-12-05T20:10:21.506016", "MEAN_MOTION": 14.2523717, "ECCENTRICITY": 0.01138993, "INCLINATION": 86.3003, "RA_OF_ASC_NODE": 95.9543, "ARG_OF_PERICENTER": 183.391, "MEAN_ANOMALY": 306.941, "EPHEMERIS_TYPE": 0, "CLASSIFICATION_TYPE": "U", "NORAD_CAT_ID": 33866, "ELEMENT_SET_NO": 999, "REV_AT_EPOCH": 86712, "BSTAR": 0.0013932117, "MEAN_MOTION_DOT": 3.523e-05, "MEAN_MOTION_DDOT": 0}, "tle": {"line1": "1 33866U 97051AK  25339.84052669  .00003523  00000+0  13932-2 0  9992", "line2": "2 33866  86.3003  95.9543 0113899 183.3910 306.9410 14.25237170867128"}}, "geometry": {"type": "Point", "coordinates": [-93.43486494488428, 67.86568432229475]}}]}